SL-16 R/B               
1 25400U 98043G   25346.86854828  .00000148  00000+0  80966-4 0  9999
2 25400  98.8124 294.6872 0008793 266.3333  93.6841 14.26025723426618
SL-16 R/B               
1 25407U 98045B   25346.76470794 -.00000175  00000+0 -64064-4 0  9996
2 25407  71.0118   4.3746 0006926 177.5751 182.5407 14.16175088414791
ISS (ZARYA)             
1 25544U 98067A   25346.86355306  .00014033  00000+0  25741-3 0  9998
2 25544  51.6304 141.8664 0003245 240.6311 119.4354 15.49550036542873
CZ-4B R/B               
1 25732U 99025C   25347.03121774  .00000135  00000+0  86342-4 0  9995
2 25732  98.6770  28.3047 0036286 233.1371 187.1325 14.18243701375886
OKEAN-O                 
1 25860U 99039A   25346.92477608  .00001207  00000+0  16588-3 0  9994
2 25860  97.9603  42.6248 0000805  98.2404 261.8899 14.80161911421555
SL-16 R/B               
1 25861U 99039B   25346.91968058  .00001011  00000+0  13534-3 0  9999
2 25861  98.0127  41.0709 0014935 174.0304 186.1090 14.81587145424013
DELTA 2 R/B             
1 25876U 99041E   25346.99689795  .00001886  00000+0  34283-3 0  9998
2 25876  51.7612 287.4192 0504695  92.5242 273.3543 14.11402013350785
HELIOS 1B               
1 25977U 99064A   25346.66892967  .00003709  00000+0  41773-3 0  9994
2 25977  98.1751 241.3324 0001713  44.1765 315.9586 14.87283872672328
TERRA                   
1 25994U 99068A   25347.01860108  .00000785  00000+0  16957-3 0  9996
2 25994  97.9750  38.6929 0003604  93.9258  22.4022 14.60902488382427
SL-16 R/B               
1 26070U 00006B   25346.96951225 -.00000122  00000+0 -37900-4 0  9999
2 26070  71.0032 280.1741 0018520 308.2240  51.7215 14.15810669336282
TITAN 4B R/B            
1 26474U 00047B   25347.00819611  .00005832  00000+0  37195-3 0  9996
2 26474  67.9898 284.1013 0038866 144.0718 216.3056 15.08785021379837
ENVISAT                 
1 27386U 02009A   25346.90696968  .00000248  00000+0  94177-4 0  9995
2 27386  98.3600 297.6432 0001130  83.1345 345.5905 14.38999439246693
