CCSDS_OMM_VERS = 2.0
CREATION_DATE  = 
ORIGINATOR     = 

OBJECT_NAME    = SL-16 R/B
OBJECT_ID      = 1998-043G
CENTER_NAME    = EARTH
REF_FRAME      = TEME
TIME_SYSTEM    = UTC
MEAN_ELEMENT_THEORY = SGP/SGP4

EPOCH          = 2025-12-12T20:50:42.571392
MEAN_MOTION    = 14.26025723
ECCENTRICITY   = .00087935
INCLINATION    = 98.8124
RA_OF_ASC_NODE = 294.6872
ARG_OF_PERICENTER = 266.3333
MEAN_ANOMALY   = 93.6841

EPHEMERIS_TYPE = 0
CLASSIFICATION_TYPE = U
NORAD_CAT_ID   = 25400
ELEMENT_SET_NO = 999
REV_AT_EPOCH   = 42661
BSTAR          = .80965546E-4
MEAN_MOTION_DOT = .148E-5
MEAN_MOTION_DDOT = 0

CCSDS_OMM_VERS = 2.0
CREATION_DATE  = 
ORIGINATOR     = 

OBJECT_NAME    = SL-16 R/B
OBJECT_ID      = 1998-045B
CENTER_NAME    = EARTH
REF_FRAME      = TEME
TIME_SYSTEM    = UTC
MEAN_ELEMENT_THEORY = SGP/SGP4

EPOCH          = 2025-12-12T18:21:10.766016
MEAN_MOTION    = 14.16175088
ECCENTRICITY   = .00069268
INCLINATION    = 71.0118
RA_OF_ASC_NODE = 4.3746
ARG_OF_PERICENTER = 177.5751
MEAN_ANOMALY   = 182.5407

EPHEMERIS_TYPE = 0
CLASSIFICATION_TYPE = U
NORAD_CAT_ID   = 25407
ELEMENT_SET_NO = 999
REV_AT_EPOCH   = 41479
BSTAR          = -.64063913E-4
MEAN_MOTION_DOT = -.175E-5
MEAN_MOTION_DDOT = 0

CCSDS_OMM_VERS = 2.0
CREATION_DATE  = 
ORIGINATOR     = 

OBJECT_NAME    = ISS (ZARYA)
OBJECT_ID      = 1998-067A
CENTER_NAME    = EARTH
REF_FRAME      = TEME
TIME_SYSTEM    = UTC
MEAN_ELEMENT_THEORY = SGP/SGP4

EPOCH          = 2025-12-12T20:43:30.984384
MEAN_MOTION    = 15.49550036
ECCENTRICITY   = .00032451
INCLINATION    = 51.6304
RA_OF_ASC_NODE = 141.8664
ARG_OF_PERICENTER = 240.6311
MEAN_ANOMALY   = 119.4354

EPHEMERIS_TYPE = 0
CLASSIFICATION_TYPE = U
NORAD_CAT_ID   = 25544
ELEMENT_SET_NO = 999
REV_AT_EPOCH   = 54287
BSTAR          = .25741225E-3
MEAN_MOTION_DOT = .14033E-3
MEAN_MOTION_DDOT = 0

CCSDS_OMM_VERS = 2.0
CREATION_DATE  = 
ORIGINATOR     = 

OBJECT_NAME    = CZ-4B R/B
OBJECT_ID      = 1999-025C
CENTER_NAME    = EARTH
REF_FRAME      = TEME
TIME_SYSTEM    = UTC
MEAN_ELEMENT_THEORY = SGP/SGP4

EPOCH          = 2025-12-13T00:44:57.212736
MEAN_MOTION    = 14.18243701
ECCENTRICITY   = .00362868
INCLINATION    = 98.6770
RA_OF_ASC_NODE = 28.3047
ARG_OF_PERICENTER = 233.1371
MEAN_ANOMALY   = 187.1325

EPHEMERIS_TYPE = 0
CLASSIFICATION_TYPE = U
NORAD_CAT_ID   = 25732
ELEMENT_SET_NO = 999
REV_AT_EPOCH   = 37588
BSTAR          = .86342216E-4
MEAN_MOTION_DOT = .135E-5
MEAN_MOTION_DDOT = 0

CCSDS_OMM_VERS = 2.0
CREATION_DATE  = 
ORIGINATOR     = 

OBJECT_NAME    = OKEAN-O
OBJECT_ID      = 1999-039A
CENTER_NAME    = EARTH
REF_FRAME      = TEME
TIME_SYSTEM    = UTC
MEAN_ELEMENT_THEORY = SGP/SGP4

EPOCH          = 2025-12-12T22:11:40.653312
MEAN_MOTION    = 14.80161911
ECCENTRICITY   = .00008053
INCLINATION    = 97.9603
RA_OF_ASC_NODE = 42.6248
ARG_OF_PERICENTER = 98.2404
MEAN_ANOMALY   = 261.8899

EPHEMERIS_TYPE = 0
CLASSIFICATION_TYPE = U
NORAD_CAT_ID   = 25860
ELEMENT_SET_NO = 999
REV_AT_EPOCH   = 42155
BSTAR          = .16587534E-3
MEAN_MOTION_DOT = .1207E-4
MEAN_MOTION_DDOT = 0

CCSDS_OMM_VERS = 2.0
CREATION_DATE  = 
ORIGINATOR     = 

OBJECT_NAME    = SL-16 R/B
OBJECT_ID      = 1999-039B
CENTER_NAME    = EARTH
REF_FRAME      = TEME
TIME_SYSTEM    = UTC
MEAN_ELEMENT_THEORY = SGP/SGP4

EPOCH          = 2025-12-12T22:04:20.402112
MEAN_MOTION    = 14.81587145
ECCENTRICITY   = .00149355
INCLINATION    = 98.0127
RA_OF_ASC_NODE = 41.0709
ARG_OF_PERICENTER = 174.0304
MEAN_ANOMALY   = 186.1090

EPHEMERIS_TYPE = 0
CLASSIFICATION_TYPE = U
NORAD_CAT_ID   = 25861
ELEMENT_SET_NO = 999
REV_AT_EPOCH   = 42401
BSTAR          = .13533754E-3
MEAN_MOTION_DOT = .1011E-4
MEAN_MOTION_DDOT = 0

CCSDS_OMM_VERS = 2.0
CREATION_DATE  = 
ORIGINATOR     = 

OBJECT_NAME    = DELTA 2 R/B
OBJECT_ID      = 1999-041E
CENTER_NAME    = EARTH
REF_FRAME      = TEME
TIME_SYSTEM    = UTC
MEAN_ELEMENT_THEORY = SGP/SGP4

EPOCH          = 2025-12-12T23:55:31.982880
MEAN_MOTION    = 14.11402013
ECCENTRICITY   = .05046956
INCLINATION    = 51.7612
RA_OF_ASC_NODE = 287.4192
ARG_OF_PERICENTER = 92.5242
MEAN_ANOMALY   = 273.3543

EPHEMERIS_TYPE = 0
CLASSIFICATION_TYPE = U
NORAD_CAT_ID   = 25876
ELEMENT_SET_NO = 999
REV_AT_EPOCH   = 35078
BSTAR          = .34283102E-3
MEAN_MOTION_DOT = .1886E-4
MEAN_MOTION_DDOT = 0

CCSDS_OMM_VERS = 2.0
CREATION_DATE  = 
ORIGINATOR     = 

OBJECT_NAME    = HELIOS 1B
OBJECT_ID      = 1999-064A
CENTER_NAME    = EARTH
REF_FRAME      = TEME
TIME_SYSTEM    = UTC
MEAN_ELEMENT_THEORY = SGP/SGP4

EPOCH          = 2025-12-12T16:03:15.523488
MEAN_MOTION    = 14.87283872
ECCENTRICITY   = .0001713
INCLINATION    = 98.1751
RA_OF_ASC_NODE = 241.3324
ARG_OF_PERICENTER = 44.1765
MEAN_ANOMALY   = 315.9586

EPHEMERIS_TYPE = 0
CLASSIFICATION_TYPE = U
NORAD_CAT_ID   = 25977
ELEMENT_SET_NO = 999
REV_AT_EPOCH   = 67232
BSTAR          = .4177278E-3
MEAN_MOTION_DOT = .3709E-4
MEAN_MOTION_DDOT = 0

CCSDS_OMM_VERS = 2.0
CREATION_DATE  = 
ORIGINATOR     = 

OBJECT_NAME    = TERRA
OBJECT_ID      = 1999-068A
CENTER_NAME    = EARTH
REF_FRAME      = TEME
TIME_SYSTEM    = UTC
MEAN_ELEMENT_THEORY = SGP/SGP4

EPOCH          = 2025-12-13T00:26:47.133312
MEAN_MOTION    = 14.60902488
ECCENTRICITY   = .00036045
INCLINATION    = 97.9750
RA_OF_ASC_NODE = 38.6929
ARG_OF_PERICENTER = 93.9258
MEAN_ANOMALY   = 22.4022

EPHEMERIS_TYPE = 0
CLASSIFICATION_TYPE = U
NORAD_CAT_ID   = 25994
ELEMENT_SET_NO = 999
REV_AT_EPOCH   = 38242
BSTAR          = .16956886E-3
MEAN_MOTION_DOT = .785E-5
MEAN_MOTION_DDOT = 0

CCSDS_OMM_VERS = 2.0
CREATION_DATE  = 
ORIGINATOR     = 

OBJECT_NAME    = SL-16 R/B
OBJECT_ID      = 2000-006B
CENTER_NAME    = EARTH
REF_FRAME      = TEME
TIME_SYSTEM    = UTC
MEAN_ELEMENT_THEORY = SGP/SGP4

EPOCH          = 2025-12-12T23:16:05.858400
MEAN_MOTION    = 14.15810669
ECCENTRICITY   = .00185209
INCLINATION    = 71.0032
RA_OF_ASC_NODE = 280.1741
ARG_OF_PERICENTER = 308.2240
MEAN_ANOMALY   = 51.7215

EPHEMERIS_TYPE = 0
CLASSIFICATION_TYPE = U
NORAD_CAT_ID   = 26070
ELEMENT_SET_NO = 999
REV_AT_EPOCH   = 33628
BSTAR          = -.37900196E-4
MEAN_MOTION_DOT = -.122E-5
MEAN_MOTION_DDOT = 0

CCSDS_OMM_VERS = 2.0
CREATION_DATE  = 
ORIGINATOR     = 

OBJECT_NAME    = TITAN 4B R/B
OBJECT_ID      = 2000-047B
CENTER_NAME    = EARTH
REF_FRAME      = TEME
TIME_SYSTEM    = UTC
MEAN_ELEMENT_THEORY = SGP/SGP4

EPOCH          = 2025-12-13T00:11:48.143904
MEAN_MOTION    = 15.08785021
ECCENTRICITY   = .00388669
INCLINATION    = 67.9898
RA_OF_ASC_NODE = 284.1013
ARG_OF_PERICENTER = 144.0718
MEAN_ANOMALY   = 216.3056

EPHEMERIS_TYPE = 0
CLASSIFICATION_TYPE = U
NORAD_CAT_ID   = 26474
ELEMENT_SET_NO = 999
REV_AT_EPOCH   = 37983
BSTAR          = .37194606E-3
MEAN_MOTION_DOT = .5832E-4
MEAN_MOTION_DDOT = 0

CCSDS_OMM_VERS = 2.0
CREATION_DATE  = 
ORIGINATOR     = 

OBJECT_NAME    = ENVISAT
OBJECT_ID      = 2002-009A
CENTER_NAME    = EARTH
REF_FRAME      = TEME
TIME_SYSTEM    = UTC
MEAN_ELEMENT_THEORY = SGP/SGP4

EPOCH          = 2025-12-12T21:46:02.180352
MEAN_MOTION    = 14.38999439
ECCENTRICITY   = .00011308
INCLINATION    = 98.3600
RA_OF_ASC_NODE = 297.6432
ARG_OF_PERICENTER = 83.1345
MEAN_ANOMALY   = 345.5905

EPHEMERIS_TYPE = 0
CLASSIFICATION_TYPE = U
NORAD_CAT_ID   = 27386
ELEMENT_SET_NO = 999
REV_AT_EPOCH   = 24669
BSTAR          = .94176607E-4
MEAN_MOTION_DOT = .248E-5
MEAN_MOTION_DDOT = 0

